387P/Boattini,e,8.9384,259.2379,162.8480,4.797263,0.0938024,0.73707568,184.3383,01/25.0/2025,2000,g 15.0,4.0
# From MPEC 2021-S45
388P/Gibbs,e,23.8828,37.0186,42.3519,5.240586,0.0821551,0.61940003,165.0885,01/25.0/2025,2000,g 13.0,4.0
# From MPEC 2022-OB6
389P/Siding Spring,e,160.0820,218.8639,249.3465,5.630905,0.0737627,0.70554200,136.5864,01/25.0/2025,2000,g 16.0,4.0
# From MPEC 2024-EF7
390P/Gibbs,e,18.5267,152.2128,232.5384,5.817020,0.0702511,0.70686745,124.2983,01/25.0/2025,2000,g 12.0,4.0
# From MPEC 2021-F20
391P/Kowalski,e,21.2574,124.7772,187.0304,4.690535,0.0970221,0.11845247,243.2865,01/25.0/2025,2000,g  8.0,4.0
# From MPEC 2021-J28
392P/LINEAR,e,4.9295,24.8187,71.9384,6.141729,0.0647542,0.68394525,113.8550,01/25.0/2025,2000,g 14.5,4.0
# From MPEC 2023-T65
393P/Spacewatch-Hill,e,16.7851,36.3987,329.2261,4.799476,0.0937375,0.11932985,179.2990,01/25.0/2025,2000,g 11.0,4.0
# From MPEC 2020-KB7
394P/PANSTARRS,e,8.5286,98.1131,54.4231,4.327155,0.1094965,0.36819817,206.1351,01/25.0/2025,2000,g 16.0,2.4
# From MPEC 2024-YC7
395P/Catalina-NEAT,e,3.5730,220.9930,100.5719,7.201722,0.0509976,0.41225471,54.5177,01/25.0/2025,2000,g 10.0,4.0
# From MPEC 2020-KB7
396P/,e,5.4417,136.6113,8.2995,6.798816,0.0555974,0.41685630,109.8769,01/25.0/2025,2000,g 12.0,4.0
# From MPEC 2022-OB6
397P/Lemmon,e,10.9214,8.2151,14.5856,3.831862,0.1313981,0.40474292,220.7205,01/25.0/2025,2000,g 12.0,4.0
# From MPEC 2021-L04
398P/Boattini,e,11.0265,320.1363,127.5395,3.124765,0.1784342,0.58375625,265.6254,01/25.0/2025,2000,g 15.5,4.0
# From MPEC 2023-XP6
399P/PANSTARRS,e,13.3182,207.1229,214.4340,3.793385,0.1334024,0.44738683,179.0786,01/25.0/2025,2000,g 14.0,4.0
# From MPEC 2024-TD8
400P/PANSTARRS,e,10.9255,176.3574,238.9360,3.561903,0.1466159,0.40968141,211.6482,01/25.0/2025,2000,g 15.5,2.8
# From MPEC 2022-K19
401P/McNaught,e,12.8003,359.9230,309.3774,5.777369,0.0709756,0.57839861,133.3665,01/25.0/2025,2000,g 12.5,4.0
# From MPEC 2024-LE0
402P/LINEAR,e,30.8294,123.0505,326.9498,7.038772,0.0527787,0.44005591,59.9626,01/25.0/2025,2000,g  9.0,4.0
# From MPEC 2021-J28
403P/Catalina,e,12.3317,277.5624,163.9498,5.431887,0.0778535,0.50431432,123.8037,01/25.0/2025,2000,g 12.0,4.0
# From MPEC 2025-AH4
404P/Bressi,e,9.8042,260.0415,169.1135,4.720912,0.0960871,0.12460114,43.2519,01/25.0/2025,2000,g 10.0,4.0
# From MPEC 2021-L04
405P/Lemmon,e,9.3786,112.1926,3.3026,3.604101,0.1440485,0.69013494,214.8646,01/25.0/2025,2000,g 17.5,4.0
# From MPEC 2021-F20
406P/Gibbs,e,1.2101,352.3953,11.5618,3.579052,0.1455634,0.54118778,231.7925,01/25.0/2025,2000,g 17.0,4.0
# From MPEC 2022-YN2
407P/PANSTARRS-Fuls,e,4.8764,80.2404,93.2488,3.490594,0.1511316,0.37610058,277.3676,01/25.0/2025,2000,g 14.0,4.0
# From MPEC 2025-AH4
408P/Novichonok-Gerke,e,19.3536,189.4493,226.6646,4.745164,0.0953514,0.26854361,80.2820,01/25.0/2025,2000,g 11.0,4.0
# From MPEC 2022-ED3
409P/LONEOS-Hill,e,17.1447,143.6417,15.0420,6.032873,0.0665147,0.71012502,96.9492,01/25.0/2025,2000,g 14.0,4.0
# From MPEC 2022-M21
410P/NEAT-LINEAR,e,9.3882,139.9429,313.2353,6.651922,0.0574491,0.51176033,75.2787,01/25.0/2025,2000,g 12.5,4.0
# From MPEC 2021-J28
411P/Christensen,e,12.3901,77.6542,46.5507,5.811304,0.0703548,0.58171860,102.7598,01/25.0/2025,2000,g 13.5,4.0
# From MPEC 2021-F20
412P/WISE,e,8.9304,0.8452,155.8721,3.111058,0.1796147,0.47902860,271.8661,01/25.0/2025,2000,g 17.0,4.0
# From MPEC 2022-OB6
413P/Larson,e,15.9604,39.2339,186.5098,3.735379,0.1365218,0.41815064,175.9552,01/25.0/2025,2000,g 14.0,4.0
# From MPEC 2024-JU4
414P/STEREO,e,23.4078,257.8186,210.7022,2.792318,0.2112306,0.81225120,308.3899,01/25.0/2025,2000,g 19.0,4.0
# From MPEC 2022-J42
415P/Tenagra,e,31.8059,160.2599,345.8668,4.108545,0.1183510,0.19541930,170.5541,01/25.0/2025,2000,g 12.0,4.0
# From MPEC 2021-L04
416P/Scotti,e,3.3629,355.7403,134.4350,4.006756,0.1228895,0.45536766,176.7903,01/25.0/2025,2000,g 15.5,4.0
# From MPEC 2021-W31
417P/NEOWISE,e,9.6371,113.1099,125.7572,3.328974,0.1622701,0.56304378,225.0618,01/25.0/2025,2000,g 16.5,4.0
# From MPEC 2022-TA0
418P/LINEAR,e,5.7805,277.6310,307.3434,5.091293,0.0857950,0.66373541,102.6634,01/25.0/2025,2000,g 13.0,4.0
# From MPEC 2023-UR6
419P/PANSTARRS,e,2.7973,40.4196,187.8859,3.531932,0.1484860,0.27437775,176.3553,01/25.0/2025,2000,g 12.5,4.0
# From MPEC 2024-L77
420P/Hill,e,14.4912,173.6346,156.4388,5.487996,0.0766626,0.49516340,75.2931,01/25.0/2025,2000,g 11.5,4.0
# From MPEC 2021-W31
421P/McNaught,e,10.0758,55.3319,259.8781,5.075571,0.0861939,0.67440957,126.0072,01/25.0/2025,2000,g 14.0,4.0
# From MPEC 2024-N80
422P/Christensen,e,39.5808,36.0159,304.7860,6.276456,0.0626805,0.50588112,69.5648,01/25.0/2025,2000,g 11.0,4.0
# From MPEC 2023-FK0
423P/Lemmon,e,8.3438,33.3016,80.7820,6.180288,0.0641492,0.12275073,78.1399,01/25.0/2025,2000,g  8.0,4.0
# From MPEC 2022-CN4
424P/LaSagra,e,8.6824,51.2023,312.5636,4.420645,0.1060414,0.69055559,125.3243,01/25.0/2025,2000,g 17.0,4.0
# From MPEC 2024-C04
425P/Kowalski,e,16.4169,210.0823,200.9693,6.350249,0.0615911,0.54387367,75.2590,01/25.0/2025,2000,g 12.0,4.0
# From MPEC 2024-N80
426P/PANSTARRS,e,17.7839,280.3962,118.4254,3.186097,0.1733068,0.16112466,87.0810,01/25.0/2025,2000,g 13.5,4.0
# From MPEC 2023-J29
428P/Gibbs,e,8.5033,299.3143,36.9059,3.488098,0.1512938,0.51832030,204.6247,01/25.0/2025,2000,g 15.0,4.0
# From MPEC 2024-EF7
429P/LINEAR-Hill,e,7.5146,322.0241,75.7200,3.555408,0.1470178,0.49103012,164.4689,01/25.0/2025,2000,g 15.5,4.0
# From MPEC 2022-L66
430P/Scotti,e,4.4754,54.6553,94.4356,3.103543,0.1802675,0.50015203,207.2144,01/25.0/2025,2000,g 16.5,4.0
# From MPEC 2025-A40
431P/Scotti,e,22.3843,202.8416,199.9924,3.476640,0.1520423,0.47750320,163.6578,01/25.0/2025,2000,g 14.0,4.0
# From MPEC 2021-U31
432P/PANSTARRS,e,10.0683,239.1288,105.3022,3.037901,0.1861417,0.24095686,231.6673,01/25.0/2025,2000,g 17.0,4.0
# From MPEC 2024-D33
434P/Tenagra,e,6.3361,288.9169,128.4139,4.135201,0.1172085,0.27449580,138.9910,01/25.0/2025,2000,g 13.0,4.0
# From MPEC 2021-W31
435P/PANSTARRS,e,18.8744,98.5251,244.2318,3.021219,0.1876855,0.31766831,239.9483,01/25.0/2025,2000,g 17.0,4.0
# From MPEC 2022-X67
436P/Garradd,e,20.1992,87.1558,282.7556,5.936620,0.0681389,0.66924800,77.9459,01/25.0/2025,2000,g 14.5,4.0
# From MPEC 2023-B57
437P/Lemmon-PANSTARRS,e,3.6891,245.8391,207.0105,4.567893,0.1009556,0.25511646,89.7467,01/25.0/2025,2000,g 13.0,4.0
# From MPEC 2025-A40
438P/Christensen,e,8.2807,260.1077,59.0109,3.852028,0.1303677,0.41421642,229.2138,01/25.0/2025,2000,g 14.5,4.0
# From MPEC 2022-C56
439P/LINEAR,e,7.1129,56.4364,342.1038,3.491493,0.1510732,0.46926288,188.4680,01/25.0/2025,2000,g 13.5,4.0
# From MPEC 2024-N80
440P/Kobayashi,e,12.3480,328.8154,183.2908,8.577503,0.0392340,0.76075443,40.4808,01/25.0/2025,2000,g 15.5,4.0
# From MPEC 2022-X67
441P/PANSTARRS,e,2.5746,143.5935,178.8742,4.132622,0.1173182,0.19475365,333.3195,01/25.0/2025,2000,g 13.5,4.0
# From MPEC 2024-N80
442P/McNaught,e,6.0573,31.9744,310.6766,4.957767,0.0892843,0.53254884,79.5575,01/25.0/2025,2000,g 13.5,4.0
# From MPEC 2024-TD8
443P/PANSTARRS-Christensen,e,19.8877,108.9374,145.0925,4.124894,0.1176481,0.28305580,98.6248,01/25.0/2025,2000,g 13.5,4.0
# From MPEC 2023-VM5
444P/WISE-PANSTARRS,e,22.7158,88.1962,172.8168,3.464547,0.1528391,0.56164581,142.9194,01/25.0/2025,2000,g 17.0,4.0
# From MPEC 2024-BE0
445P/Lemmon-PANSTARRS,e,1.0887,126.5899,213.2702,4.047730,0.1210283,0.41400297,108.0284,01/25.0/2025,2000,g 15.0,4.0
# From MPEC 2024-NE4
446P/McNaught,e,16.6211,336.3579,344.6442,4.561941,0.1011532,0.64667956,98.3250,01/25.0/2025,2000,g 16.5,4.0
# From MPEC 2022-YB4
447P/Sheppard-Tholen,e,7.4401,302.6358,97.6212,5.628292,0.0738141,0.17760265,65.8009,01/25.0/2025,2000,g 12.0,4.0
# From MPEC 2024-PC5
448P/PANSTARRS,e,12.1466,161.7566,218.7938,3.635966,0.1421590,0.41834394,123.9127,01/25.0/2025,2000,g 16.0,4.0
# From MPEC 2024-DC6
449P/Leonard,e,15.4717,242.5238,176.7559,3.599867,0.1443027,0.47984726,219.6000,01/25.0/2025,2000,g 16.0,4.0
# From MPEC 2025-AH4
450P/LONEOS,e,10.6088,124.5029,22.4716,7.957776,0.0439053,0.31384217,327.9799,01/25.0/2025,2000,g  6.5,4.0
# From MPEC 2023-HD1
451P/Christensen,e,26.4830,300.8736,186.7668,6.348097,0.0616224,0.55915973,48.6297,01/25.0/2025,2000,g 15.5,4.0
# From MPEC 2024-NE4
452P/Sheppard-Jewitt,e,6.4217,123.6701,37.0711,7.308213,0.0498870,0.42836052,31.9394,01/25.0/2025,2000,g  9.0,4.0
# From MPEC 2023-RF3
453P/WISE-Lemmon,e,27.0639,42.8953,70.8784,5.466000,0.0771258,0.58310463,53.5033,01/25.0/2025,2000,g 14.0,4.0
# From MPEC 2023-CD7
454P/PANSTARRS,e,19.8116,54.5840,20.1654,4.210597,0.1140745,0.36154433,104.1925,01/25.0/2025,2000,g 14.0,4.0
# From MPEC 2022-Y14
455P/PANSTARRS,e,14.1358,146.1827,237.5303,3.153073,0.1760366,0.30459503,123.2110,01/25.0/2025,2000,g 17.0,4.0
# From MPEC 2025-A40
456P/PANSTARRS,e,16.9673,243.1535,233.0426,3.171916,0.1744703,0.11655232,346.0191,01/25.0/2025,2000,g 13.5,4.0
# From MPEC 2025-A40
457P/Lemmon-PANSTARRS,e,5.2254,175.9644,104.3537,2.645415,0.2290674,0.11844496,36.1465,01/25.0/2025,2000,g 15.5,4.0
# From MPEC 2023-HD1
458P/Jahn,e,13.6232,1.5712,104.8974,3.858768,0.1300263,0.31726838,106.2775,01/25.0/2025,2000,g 17.3,4.0
# From MPEC 2024-N80
459P/Catalina,e,7.1741,256.9880,205.2153,3.240223,0.1689825,0.57785459,118.8636,01/25.0/2025,2000,g 15.5,4.0
# From MPEC 2023-G14
460P/PANSTARRS,e,18.8988,180.5158,351.9372,3.027184,0.1871310,0.66414232,246.8394,01/25.0/2025,2000,g 21.0,4.0
# From MPEC 2024-GJ3
461P/WISE,e,18.4027,194.3793,174.8355,3.144035,0.1767963,0.56973198,213.6245,01/25.0/2025,2000,g 18.5,4.0
# From MPEC 2024-BE0
462P/LONEOS-PANSTARRS,e,7.0378,322.7035,4.2823,4.867633,0.0917756,0.57824999,83.2913,01/25.0/2025,2000,g 17.0,4.0
# From MPEC 2024-GJ3
463P/NEOWISE,e,29.2959,283.2179,216.3400,2.974186,0.1921550,0.82581082,128.2152,01/25.0/2025,2000,g 18.0,4.0
# From MPEC 2024-Q20
464P/PANSTARRS,e,21.6723,309.5775,267.5579,4.684570,0.0972074,0.28048393,67.8129,01/25.0/2025,2000,g 10.5,4.0
# From MPEC 2024-NE4
